{"type": "FeatureCollection", "features": [ {"type": "Feature", "properties": {"norad_id": 66567, "name": "STARLINK-35825", "group": "last-30-days", "lat": -2.3629653844338807, "lon": -39.04978551313098, "alt_km": 415.0699382126031, "timestamp": "2025-12-09T18:55:16.022706+00:00", "meta": {"OBJECT_NAME": "STARLINK-35825", "OBJECT_ID": "2025-268L", "EPOCH": "2025-12-09T14:00:01.999872", "MEAN_MOTION": 15.5059286, "ECCENTRICITY": 0.00019182, "INCLINATION": 43.0004, "RA_OF_ASC_NODE": 139.6117, "ARG_OF_PERICENTER": 267.9647, "MEAN_ANOMALY": 209.6105, "EPHEMERIS_TYPE": 0, "CLASSIFICATION_TYPE": "U", "NORAD_CAT_ID": 66567, "ELEMENT_SET_NO": 999, "REV_AT_EPOCH": 416, "BSTAR": -0.0013679127, "MEAN_MOTION_DOT": -0.0007982, "MEAN_MOTION_DDOT": 0}, "tle": {"line1": "1 66567U 25268L   25343.58335648 -.00079820  00000+0 -13679-2 0  9997", "line2": "2 66567  43.0004 139.6117 0001918 267.9647 209.6105 15.50592860  4166"}}, "geometry": {"type": "Point", "coordinates": [-39.04978551313098, -2.3629653844338807]}}, {"type": "Feature", "properties": {"norad_id": 66568, "name": "STARLINK-35803", "group": "last-30-days", "lat": -3.6686348711601102, "lon": -37.64752357304968, "alt_km": 415.15209956948274, "timestamp": "2025-12-09T18:55:16.022716+00:00", "meta": {"OBJECT_NAME": "STARLINK-35803", "OBJECT_ID": "2025-268M", "EPOCH": "2025-12-09T14:00:01.999872", "MEAN_MOTION": 15.50597625, "ECCENTRICITY": 0.00018087, "INCLINATION": 43.0005, "RA_OF_ASC_NODE": 139.6066, "ARG_OF_PERICENTER": 266.1467, "MEAN_ANOMALY": 213.343, "EPHEMERIS_TYPE": 0, "CLASSIFICATION_TYPE": "U", "NORAD_CAT_ID": 66568, "ELEMENT_SET_NO": 999, "REV_AT_EPOCH": 416, "BSTAR": -0.0014917978, "MEAN_MOTION_DOT": -0.00086954, "MEAN_MOTION_DDOT": 0}, "tle": {"line1": "1 66568U 25268M   25343.58335648 -.00086954  00000+0 -14918-2 0  9991", "line2": "2 66568  43.0005 139.6066 0001808 266.1467 213.3430 15.50597625  4167"}}, "geometry": {"type": "Point", "coordinates": [-37.64752357304968, -3.6686348711601102]}}, {"type": "Feature", "properties": {"norad_id": 66569, "name": "STARLINK-35835", "group": "last-30-days", "lat": -4.971363896055335, "lon": -36.24100528559534, "alt_km": 415.2843213011902, "timestamp": "2025-12-09T18:55:16.022728+00:00", "meta": {"OBJECT_NAME": "STARLINK-35835", "OBJECT_ID": "2025-268N", "EPOCH": "2025-12-09T14:00:01.999872", "MEAN_MOTION": 15.50598218, "ECCENTRICITY": 0.00019264, "INCLINATION": 43.0004, "RA_OF_ASC_NODE": 139.6024, "ARG_OF_PERICENTER": 267.2648, "MEAN_ANOMALY": 214.1437, "EPHEMERIS_TYPE": 0, "CLASSIFICATION_TYPE": "U", "NORAD_CAT_ID": 66569, "ELEMENT_SET_NO": 999, "REV_AT_EPOCH": 416, "BSTAR": -0.0015579319, "MEAN_MOTION_DOT": -0.00090753, "MEAN_MOTION_DDOT": 0}, "tle": {"line1": "1 66569U 25268N   25343.58335648 -.00090753  00000+0 -15579-2 0  9998", "line2": "2 66569  43.0004 139.6024 0001926 267.2648 214.1437 15.50598218  4160"}}, "geometry": {"type": "Point", "coordinates": [-36.24100528559534, -4.971363896055335]}}, {"type": "Feature", "properties": {"norad_id": 66570, "name": "STARLINK-35834", "group": "last-30-days", "lat": -6.271121265431143, "lon": -34.83060926908994, "alt_km": 415.51252260379533, "timestamp": "2025-12-09T18:55:16.022738+00:00", "meta": {"OBJECT_NAME": "STARLINK-35834", "OBJECT_ID": "2025-268P", "EPOCH": "2025-12-09T14:00:01.999872", "MEAN_MOTION": 15.50590416, "ECCENTRICITY": 0.00015713, "INCLINATION": 43.0006, "RA_OF_ASC_NODE": 139.5965, "ARG_OF_PERICENTER": 271.2831, "MEAN_ANOMALY": 212.0415, "EPHEMERIS_TYPE": 0, "CLASSIFICATION_TYPE": "U", "NORAD_CAT_ID": 66570, "ELEMENT_SET_NO": 999, "REV_AT_EPOCH": 416, "BSTAR": -0.0011966537, "MEAN_MOTION_DOT": -0.00069949, "MEAN_MOTION_DDOT": 0}, "tle": {"line1": "1 66570U 25268P   25343.58335648 -.00069949  00000+0 -11967-2 0  9990", "line2": "2 66570  43.0006 139.5965 0001571 271.2831 212.0415 15.50590416  4167"}}, "geometry": {"type": "Point", "coordinates": [-34.83060926908994, -6.271121265431143]}}, {"type": "Feature", "properties": {"norad_id": 66571, "name": "STARLINK-35836", "group": "last-30-days", "lat": -7.5656772551812255, "lon": -33.41344321301578, "alt_km": 415.5958360148825, "timestamp": "2025-12-09T18:55:16.022748+00:00", "meta": {"OBJECT_NAME": "STARLINK-35836", "OBJECT_ID": "2025-268Q", "EPOCH": "2025-12-09T14:00:01.999872", "MEAN_MOTION": 15.50593006, "ECCENTRICITY": 0.00017772, "INCLINATION": 43.0006, "RA_OF_ASC_NODE": 139.5918, "ARG_OF_PERICENTER": 270.8208, "MEAN_ANOMALY": 214.4205, "EPHEMERIS_TYPE": 0, "CLASSIFICATION_TYPE": "U", "NORAD_CAT_ID": 66571, "ELEMENT_SET_NO": 999, "REV_AT_EPOCH": 416, "BSTAR": -0.0012900145, "MEAN_MOTION_DOT": -0.00075336, "MEAN_MOTION_DDOT": 0}, "tle": {"line1": "1 66571U 25268Q   25343.58335648 -.00075336  00000+0 -12900-2 0  9996", "line2": "2 66571  43.0006 139.5918 0001777 270.8208 214.4205 15.50593006  4168"}}, "geometry": {"type": "Point", "coordinates": [-33.41344321301578, -7.5656772551812255]}}, {"type": "Feature", "properties": {"norad_id": 66572, "name": "STARLINK-35870", "group": "last-30-days", "lat": -8.858021897053678, "lon": -31.983834758830294, "alt_km": 415.7596042858768, "timestamp": "2025-12-09T18:55:16.022759+00:00", "meta": {"OBJECT_NAME": "STARLINK-35870", "OBJECT_ID": "2025-268R", "EPOCH": "2025-12-09T14:00:01.999872", "MEAN_MOTION": 15.50597311, "ECCENTRICITY": 0.00017675, "INCLINATION": 43.0006, "RA_OF_ASC_NODE": 139.5883, "ARG_OF_PERICENTER": 273.6575, "MEAN_ANOMALY": 213.5011, "EPHEMERIS_TYPE": 0, "CLASSIFICATION_TYPE": "U", "NORAD_CAT_ID": 66572, "ELEMENT_SET_NO": 999, "REV_AT_EPOCH": 416, "BSTAR": -0.0014354354, "MEAN_MOTION_DOT": -0.00083714, "MEAN_MOTION_DDOT": 0}, "tle": {"line1": "1 66572U 25268R   25343.58335648 -.00083714  00000+0 -14354-2 0  9991", "line2": "2 66572  43.0006 139.5883 0001767 273.6575 213.5011 15.50597311  4165"}}, "geometry": {"type": "Point", "coordinates": [-31.983834758830294, -8.858021897053678]}}, {"type": "Feature", "properties": {"norad_id": 66573, "name": "STARLINK-35650", "group": "last-30-days", "lat": -10.143108499710637, "lon": -30.54884953098193, "alt_km": 416.1231889062183, "timestamp": "2025-12-09T18:55:16.022770+00:00", "meta": {"OBJECT_NAME": "STARLINK-35650", "OBJECT_ID": "2025-268S", "EPOCH": "2025-12-09T14:00:01.999872", "MEAN_MOTION": 15.50546826, "ECCENTRICITY": 0.00023629, "INCLINATION": 43.0003, "RA_OF_ASC_NODE": 139.5819, "ARG_OF_PERICENTER": 283.3158, "MEAN_ANOMALY": 205.7926, "EPHEMERIS_TYPE": 0, "CLASSIFICATION_TYPE": "U", "NORAD_CAT_ID": 66573, "ELEMENT_SET_NO": 999, "REV_AT_EPOCH": 416, "BSTAR": -0.00016167882, "MEAN_MOTION_DOT": -9.805e-05, "MEAN_MOTION_DDOT": 0}, "tle": {"line1": "1 66573U 25268S   25343.58335648 -.00009805  00000+0 -16168-3 0  9997", "line2": "2 66573  43.0003 139.5819 0002362 283.3158 205.7926 15.50546826  4162"}}, "geometry": {"type": "Point", "coordinates": [-30.54884953098193, -10.143108499710637]}}, {"type": "Feature", "properties": {"norad_id": 66574, "name": "STARLINK-35812", "group": "last-30-days", "lat": -11.412649332509883, "lon": -29.111532318009818, "alt_km": 415.74379473501176, "timestamp": "2025-12-09T18:55:16.022781+00:00", "meta": {"OBJECT_NAME": "STARLINK-35812", "OBJECT_ID": "2025-268T", "EPOCH": "2025-12-09T14:00:01.999872", "MEAN_MOTION": 15.5055966, "ECCENTRICITY": 0.00020885, "INCLINATION": 43.0006, "RA_OF_ASC_NODE": 139.5771, "ARG_OF_PERICENTER": 266.0838, "MEAN_ANOMALY": 224.9116, "EPHEMERIS_TYPE": 0, "CLASSIFICATION_TYPE": "U", "NORAD_CAT_ID": 66574, "ELEMENT_SET_NO": 999, "REV_AT_EPOCH": 416, "BSTAR": 5.3110977e-05, "MEAN_MOTION_DOT": 2.773e-05, "MEAN_MOTION_DDOT": 0}, "tle": {"line1": "1 66574U 25268T   25343.58335648  .00002773  00000+0  53111-4 0  9993", "line2": "2 66574  43.0006 139.5771 0002088 266.0838 224.9116 15.50559660  4165"}}, "geometry": {"type": "Point", "coordinates": [-29.111532318009818, -11.412649332509883]}}, {"type": "Feature", "properties": {"norad_id": 66575, "name": "STARLINK-35810", "group": "last-30-days", "lat": -12.684821947792813, "lon": -27.649596528895422, "alt_km": 415.90141971634785, "timestamp": "2025-12-09T18:55:16.022791+00:00", "meta": {"OBJECT_NAME": "STARLINK-35810", "OBJECT_ID": "2025-268U", "EPOCH": "2025-12-09T14:00:01.999872", "MEAN_MOTION": 15.5056395, "ECCENTRICITY": 0.00020204, "INCLINATION": 43.0005, "RA_OF_ASC_NODE": 139.5725, "ARG_OF_PERICENTER": 268.5637, "MEAN_ANOMALY": 224.3469, "EPHEMERIS_TYPE": 0, "CLASSIFICATION_TYPE": "U", "NORAD_CAT_ID": 66575, "ELEMENT_SET_NO": 999, "REV_AT_EPOCH": 416, "BSTAR": -8.3394831e-05, "MEAN_MOTION_DOT": -5.229e-05, "MEAN_MOTION_DDOT": 0}, "tle": {"line1": "1 66575U 25268U   25343.58335648 -.00005229  00000+0 -83395-4 0  9992", "line2": "2 66575  43.0005 139.5725 0002020 268.5637 224.3469 15.50563950  4166"}}, "geometry": {"type": "Point", "coordinates": [-27.649596528895422, -12.684821947792813]}}, {"type": "Feature", "properties": {"norad_id": 66576, "name": "STARLINK-35814", "group": "last-30-days", "lat": -13.953817354333053, "lon": -26.167143413060057, "alt_km": 415.9272107912602, "timestamp": "2025-12-09T18:55:16.022801+00:00", "meta": {"OBJECT_NAME": "STARLINK-35814", "OBJECT_ID": "2025-268V", "EPOCH": "2025-12-09T14:00:01.999872", "MEAN_MOTION": 15.50588071, "ECCENTRICITY": 0.00019883, "INCLINATION": 43.0006, "RA_OF_ASC_NODE": 139.568, "ARG_OF_PERICENTER": 265.5517, "MEAN_ANOMALY": 229.2746, "EPHEMERIS_TYPE": 0, "CLASSIFICATION_TYPE": "U", "NORAD_CAT_ID": 66576, "ELEMENT_SET_NO": 999, "REV_AT_EPOCH": 416, "BSTAR": -0.001118318, "MEAN_MOTION_DOT": -0.00065427, "MEAN_MOTION_DDOT": 0}, "tle": {"line1": "1 66576U 25268V   25343.58335648 -.00065427  00000+0 -11183-2 0  9993", "line2": "2 66576  43.0006 139.5680 0001988 265.5517 229.2746 15.50588071  4167"}}, "geometry": {"type": "Point", "coordinates": [-26.167143413060057, -13.953817354333053]}}]}